QIANFAN-89              
1 63175U 25046S   25350.28372556  .00000170  00000+0  24387-3 0  9996
2 63175  88.9765 319.6706 0018156 111.7607 248.5479 13.50977434 47882
QIANFAN-90              
1 63176U 25046T   25350.31246311  .00000113  00000+0  15657-3 0  9997
2 63176  88.9765 319.6401 0015125 109.4838 250.7949 13.50977937 47906
QIANFAN-91              
1 66033U 25233A   25350.07865382  .00000036  00000+0  24154-4 0  9995
2 66033  88.9955  61.8047 0017780  36.0163 324.2196 13.76051258  8432
QIANFAN-92              
1 66034U 25233B   25350.13617819  .00000038  00000+0  25688-4 0  9998
2 66034  88.9992  61.8001 0016535  36.4867 323.7423 13.77434489  8446
QIANFAN-93              
1 66035U 25233C   25349.57668684  .00000049  00000+0  35917-4 0  9999
2 66035  88.9958  61.8599 0016163  38.4259 321.8055 13.78057410  8362
QIANFAN-94              
1 66036U 25233D   25350.11450693  .00000039  00000+0  24856-4 0  9990
2 66036  89.0057  61.8168 0021716  18.1232 342.0705 13.79697853  8441
QIANFAN-95              
1 66037U 25233E   25350.29225554  .00000407  00000+0  20480-3 0  9993
2 66037  88.9963  61.6529 0014947  33.2532 326.9591 14.14452455  8535
QIANFAN-96              
1 66038U 25233F   25349.67653589  .00000042  00000+0  29468-4 0  9998
2 66038  89.0065  61.8584 0022360  38.4495 321.8259 13.76336593  8375
